{
  "type": "FeatureCollection",
  "features": [
    {
      "type": "Feature",
      "properties": {
        "norad_id": 29904,
        "name": "FENGYUN 1C DEB",
        "group": "fengyun-1c-debris",
        "lat": -69.18945463100138,
        "lon": -179.40801855171964,
        "alt_km": 686.924570845923,
        "timestamp": "2025-12-13T10:41:26.038168+00:00",
        "meta_object_name": "FENGYUN 1C DEB",
        "meta_object_id": "1999-025HA",
        "meta_epoch": "2025-12-12T20:12:52.802784",
        "meta_mean_motion": 14.44480843,
        "meta_eccentricity": 0.02077501,
        "meta_inclination": 99.0422,
        "meta_ra_of_asc_node": 24.7205,
        "meta_arg_of_pericenter": 318.3673,
        "meta_mean_anomaly": 40.1857,
        "meta_ephemeris_type": 0,
        "meta_classification_type": "U",
        "meta_norad_cat_id": 29904,
        "meta_element_set_no": 999,
        "meta_rev_at_epoch": 99065,
        "meta_bstar": 0.0006862509,
        "meta_mean_motion_dot": 3.025e-05,
        "meta_mean_motion_ddot": 0,
        "tle_line1": "1 29904U 99025HA  25346.84227781  .00003025  00000+0  68625-3 0  9997",
        "tle_line2": "2 29904  99.0422  24.7205 0207750 318.3673  40.1857 14.44480843990658"
      },
      "geometry": {
        "type": "Point",
        "coordinates": [
          -179.40801855171964,
          -69.18945463100138
        ]
      }
    },
    {
      "type": "Feature",
      "properties": {
        "norad_id": 29906,
        "name": "FENGYUN 1C DEB",
        "group": "fengyun-1c-debris",
        "lat": -1.1254782947959427,
        "lon": -89.358625305898,
        "alt_km": 707.9871046128555,
        "timestamp": "2025-12-13T10:41:26.038179+00:00",
        "meta_object_name": "FENGYUN 1C DEB",
        "meta_object_id": "1999-025HC",
        "meta_epoch": "2025-12-12T18:57:05.419584",
        "meta_mean_motion": 14.49644045,
        "meta_eccentricity": 0.00370399,
        "meta_inclination": 98.705,
        "meta_ra_of_asc_node": 90.137,
        "meta_arg_of_pericenter": 149.0663,
        "meta_mean_anomaly": 211.2722,
        "meta_ephemeris_type": 0,
        "meta_classification_type": "U",
        "meta_norad_cat_id": 29906,
        "meta_element_set_no": 999,
        "meta_rev_at_epoch": 98158,
        "meta_bstar": 0.0035541122,
        "meta_mean_motion_dot": 0.00013759,
        "meta_mean_motion_ddot": 0,
        "tle_line1": "1 29906U 99025HC  25346.78964606  .00013759  00000+0  35541-2 0  9991",
        "tle_line2": "2 29906  98.7050  90.1370 0037039 149.0663 211.2722 14.49644045981587"
      },
      "geometry": {
        "type": "Point",
        "coordinates": [
          -89.358625305898,
          -1.1254782947959427
        ]
      }
    },
    {
      "type": "Feature",
      "properties": {
        "norad_id": 29907,
        "name": "FENGYUN 1C DEB",
        "group": "fengyun-1c-debris",
        "lat": -49.11773535168764,
        "lon": -136.55311144282336,
        "alt_km": 802.6486203857676,
        "timestamp": "2025-12-13T10:41:26.038189+00:00",
        "meta_object_name": "FENGYUN 1C DEB",
        "meta_object_id": "1999-025HD",
        "meta_epoch": "2025-12-12T15:37:44.823936",
        "meta_mean_motion": 14.11633006,
        "meta_eccentricity": 0.00839481,
        "meta_inclination": 99.1118,
        "meta_ra_of_asc_node": 53.3243,
        "meta_arg_of_pericenter": 249.7061,
        "meta_mean_anomaly": 266.5269,
        "meta_ephemeris_type": 0,
        "meta_classification_type": "U",
        "meta_norad_cat_id": 29907,
        "meta_element_set_no": 999,
        "meta_rev_at_epoch": 96597,
        "meta_bstar": 0.0024517141,
        "meta_mean_motion_dot": 4.563e-05,
        "meta_mean_motion_ddot": 0,
        "tle_line1": "1 29907U 99025HD  25346.65121324  .00004563  00000+0  24517-2 0  9994",
        "tle_line2": "2 29907  99.1118  53.3243 0083948 249.7061 266.5269 14.11633006965976"
      },
      "geometry": {
        "type": "Point",
        "coordinates": [
          -136.55311144282336,
          -49.11773535168764
        ]
      }
    },
    {
      "type": "Feature",
      "properties": {
        "norad_id": 29909,
        "name": "FENGYUN 1C DEB",
        "group": "fengyun-1c-debris",
        "lat": -81.3581015180767,
        "lon": -179.94001545147947,
        "alt_km": 722.1710691594162,
        "timestamp": "2025-12-13T10:41:26.038204+00:00",
        "meta_object_name": "FENGYUN 1C DEB",
        "meta_object_id": "1999-025HF",
        "meta_epoch": "2025-12-12T19:11:51.981216",
        "meta_mean_motion": 14.55127835,
        "meta_eccentricity": 0.00382681,
        "meta_inclination": 98.6344,
        "meta_ra_of_asc_node": 90.6042,
        "meta_arg_of_pericenter": 15.0279,
        "meta_mean_anomaly": 115.9362,
        "meta_ephemeris_type": 0,
        "meta_classification_type": "U",
        "meta_norad_cat_id": 29909,
        "meta_element_set_no": 999,
        "meta_rev_at_epoch": 98406,
        "meta_bstar": 0.0030092185,
        "meta_mean_motion_dot": 0.00013095,
        "meta_mean_motion_ddot": 0,
        "tle_line1": "1 29909U 99025HF  25346.79990719  .00013095  00000+0  30092-2 0  9998",
        "tle_line2": "2 29909  98.6344  90.6042 0038268  15.0279 115.9362 14.55127835984062"
      },
      "geometry": {
        "type": "Point",
        "coordinates": [
          -179.94001545147947,
          -81.3581015180767
        ]
      }
    },
    {
      "type": "Feature",
      "properties": {
        "norad_id": 29911,
        "name": "FENGYUN 1C DEB",
        "group": "fengyun-1c-debris",
        "lat": -35.46637226127171,
        "lon": 36.819703800433686,
        "alt_km": 855.1606141737402,
        "timestamp": "2025-12-13T10:41:26.038215+00:00",
        "meta_object_name": "FENGYUN 1C DEB",
        "meta_object_id": "1999-025HH",
        "meta_epoch": "2025-12-12T02:59:32.855712",
        "meta_mean_motion": 14.18851687,
        "meta_eccentricity": 0.00274423,
        "meta_inclination": 98.7158,
        "meta_ra_of_asc_node": 29.2475,
        "meta_arg_of_pericenter": 152.6399,
        "meta_mean_anomaly": 269.0348,
        "meta_ephemeris_type": 0,
        "meta_classification_type": "U",
        "meta_norad_cat_id": 29911,
        "meta_element_set_no": 999,
        "meta_rev_at_epoch": 97422,
        "meta_bstar": 0.0011303155,
        "meta_mean_motion_dot": 2.318e-05,
        "meta_mean_motion_ddot": 0,
        "tle_line1": "1 29911U 99025HH  25346.12468583  .00002318  00000+0  11303-2 0  9997",
        "tle_line2": "2 29911  98.7158  29.2475 0027442 152.6399 269.0348 14.18851687974220"
      },
      "geometry": {
        "type": "Point",
        "coordinates": [
          36.819703800433686,
          -35.46637226127171
        ]
      }
    },
    {
      "type": "Feature",
      "properties": {
        "norad_id": 29912,
        "name": "FENGYUN 1C DEB",
        "group": "fengyun-1c-debris",
        "lat": -16.489840858045582,
        "lon": 87.51870492478255,
        "alt_km": 771.5658284746296,
        "timestamp": "2025-12-13T10:41:26.038225+00:00",
        "meta_object_name": "FENGYUN 1C DEB",
        "meta_object_id": "1999-025HJ",
        "meta_epoch": "2025-12-12T18:44:13.256736",
        "meta_mean_motion": 14.42983604,
        "meta_eccentricity": 0.00430169,
        "meta_inclination": 98.7376,
        "meta_ra_of_asc_node": 84.2281,
        "meta_arg_of_pericenter": 218.9479,
        "meta_mean_anomaly": 272.945,
        "meta_ephemeris_type": 0,
        "meta_classification_type": "U",
        "meta_norad_cat_id": 29912,
        "meta_element_set_no": 999,
        "meta_rev_at_epoch": 98039,
        "meta_bstar": 0.0031961298,
        "meta_mean_motion_dot": 0.00010787,
        "meta_mean_motion_ddot": 0,
        "tle_line1": "1 29912U 99025HJ  25346.78070899  .00010787  00000+0  31961-2 0  9990",
        "tle_line2": "2 29912  98.7376  84.2281 0043016 218.9479 272.9450 14.42983604980393"
      },
      "geometry": {
        "type": "Point",
        "coordinates": [
          87.51870492478255,
          -16.489840858045582
        ]
      }
    },
    {
      "type": "Feature",
      "properties": {
        "norad_id": 29913,
        "name": "FENGYUN 1C DEB",
        "group": "fengyun-1c-debris",
        "lat": 3.0554156716198646,
        "lon": -14.195550997325299,
        "alt_km": 873.4812504170532,
        "timestamp": "2025-12-13T10:41:26.038236+00:00",
        "meta_object_name": "FENGYUN 1C DEB",
        "meta_object_id": "1999-025HK",
        "meta_epoch": "2025-12-12T23:02:43.070208",
        "meta_mean_motion": 14.0738225,
        "meta_eccentricity": 0.00618952,
        "meta_inclination": 98.7877,
        "meta_ra_of_asc_node": 345.8057,
        "meta_arg_of_pericenter": 270.8282,
        "meta_mean_anomaly": 154.6351,
        "meta_ephemeris_type": 0,
        "meta_classification_type": "U",
        "meta_norad_cat_id": 29913,
        "meta_element_set_no": 999,
        "meta_rev_at_epoch": 96968,
        "meta_bstar": 0.00049227874,
        "meta_mean_motion_dot": 7.99e-06,
        "meta_mean_motion_ddot": 0,
        "tle_line1": "1 29913U 99025HK  25346.96022072  .00000799  00000+0  49228-3 0  9999",
        "tle_line2": "2 29913  98.7877 345.8057 0061895 270.8282 154.6351 14.07382250969687"
      },
      "geometry": {
        "type": "Point",
        "coordinates": [
          -14.195550997325299,
          3.0554156716198646
        ]
      }
    }
  ]
}